{"type": "FeatureCollection", "features": [ {"type": "Feature", "properties": {"norad_id": 30306, "name": "FENGYUN 1C DEB", "group": "fengyun-1c-debris", "lat": 52.717028453922914, "lon": 25.954745988012924, "alt_km": 784.492667248127, "timestamp": "2025-12-22T11:33:20.714753+00:00", "meta": {"OBJECT_NAME": "FENGYUN 1C DEB", "OBJECT_ID": "1999-025ZT", "EPOCH": "2025-12-21T08:24:26.991360", "MEAN_MOTION": 14.28243189, "ECCENTRICITY": 0.01130333, "INCLINATION": 98.5861, "RA_OF_ASC_NODE": 36.2884, "ARG_OF_PERICENTER": 332.0713, "MEAN_ANOMALY": 27.443, "EPHEMERIS_TYPE": 0, "CLASSIFICATION_TYPE": "U", "NORAD_CAT_ID": 30306, "ELEMENT_SET_NO": 999, "REV_AT_EPOCH": 97804, "BSTAR": 0.00076128497, "MEAN_MOTION_DOT": 1.988e-05, "MEAN_MOTION_DDOT": 0}, "tle": {"line1": "1 30306U 99025ZT  25355.35031240  .00001988  00000+0  76128-3 0  9997", "line2": "2 30306  98.5861  36.2884 0113033 332.0713  27.4430 14.28243189978042"}}, "geometry": {"type": "Point", "coordinates": [25.954745988012924, 52.717028453922914]}}, {"type": "Feature", "properties": {"norad_id": 30309, "name": "FENGYUN 1C DEB", "group": "fengyun-1c-debris", "lat": -1.6021756050083995, "lon": -126.63907621737027, "alt_km": 853.5820201036613, "timestamp": "2025-12-22T11:33:20.714763+00:00", "meta": {"OBJECT_NAME": "FENGYUN 1C DEB", "OBJECT_ID": "1999-025ZW", "EPOCH": "2025-12-22T03:47:50.721216", "MEAN_MOTION": 13.93526696, "ECCENTRICITY": 0.0093742, "INCLINATION": 99.2247, "RA_OF_ASC_NODE": 53.299, "ARG_OF_PERICENTER": 166.3573, "MEAN_ANOMALY": 194.0153, "EPHEMERIS_TYPE": 0, "CLASSIFICATION_TYPE": "U", "NORAD_CAT_ID": 30309, "ELEMENT_SET_NO": 999, "REV_AT_EPOCH": 96164, "BSTAR": 0.00039278, "MEAN_MOTION_DOT": 4.9e-06, "MEAN_MOTION_DDOT": 0}, "tle": {"line1": "1 30309U 99025ZW  25356.15822594  .00000490  00000+0  39278-3 0  9991", "line2": "2 30309  99.2247  53.2990 0093742 166.3573 194.0153 13.93526696961643"}}, "geometry": {"type": "Point", "coordinates": [-126.63907621737027, -1.6021756050083995]}}, {"type": "Feature", "properties": {"norad_id": 30310, "name": "FENGYUN 1C DEB", "group": "fengyun-1c-debris", "lat": -76.10670710832287, "lon": 157.68904267332792, "alt_km": 811.0483151015314, "timestamp": "2025-12-22T11:33:20.714773+00:00", "meta": {"OBJECT_NAME": "FENGYUN 1C DEB", "OBJECT_ID": "1999-025ZX", "EPOCH": "2025-12-22T00:04:51.017664", "MEAN_MOTION": 14.08411547, "ECCENTRICITY": 0.0240513, "INCLINATION": 98.664, "RA_OF_ASC_NODE": 15.2853, "ARG_OF_PERICENTER": 331.2103, "MEAN_ANOMALY": 27.5967, "EPHEMERIS_TYPE": 0, "CLASSIFICATION_TYPE": "U", "NORAD_CAT_ID": 30310, "ELEMENT_SET_NO": 999, "REV_AT_EPOCH": 96862, "BSTAR": 0.00058082, "MEAN_MOTION_DOT": 1.253e-05, "MEAN_MOTION_DDOT": 0}, "tle": {"line1": "1 30310U 99025ZX  25356.00336826  .00001253  00000+0  58082-3 0  9997", "line2": "2 30310  98.6640  15.2853 0240513 331.2103  27.5967 14.08411547968626"}}, "geometry": {"type": "Point", "coordinates": [157.68904267332792, -76.10670710832287]}}, {"type": "Feature", "properties": {"norad_id": 30311, "name": "FENGYUN 1C DEB", "group": "fengyun-1c-debris", "lat": 66.52595117386943, "lon": -66.43285596978558, "alt_km": 901.66889820089, "timestamp": "2025-12-22T11:33:20.714783+00:00", "meta": {"OBJECT_NAME": "FENGYUN 1C DEB", "OBJECT_ID": "1999-025ZY", "EPOCH": "2025-12-21T12:21:12.756672", "MEAN_MOTION": 13.77896404, "ECCENTRICITY": 0.01655756, "INCLINATION": 99.1393, "RA_OF_ASC_NODE": 90.8789, "ARG_OF_PERICENTER": 173.7957, "MEAN_ANOMALY": 186.5298, "EPHEMERIS_TYPE": 0, "CLASSIFICATION_TYPE": "U", "NORAD_CAT_ID": 30311, "ELEMENT_SET_NO": 999, "REV_AT_EPOCH": 95081, "BSTAR": 0.00032738217, "MEAN_MOTION_DOT": 3.21e-06, "MEAN_MOTION_DDOT": 0}, "tle": {"line1": "1 30311U 99025ZY  25355.51473098  .00000321  00000+0  32738-3 0  9991", "line2": "2 30311  99.1393  90.8789 0165575 173.7957 186.5298 13.77896404950814"}}, "geometry": {"type": "Point", "coordinates": [-66.43285596978558, 66.52595117386943]}}, {"type": "Feature", "properties": {"norad_id": 30312, "name": "FENGYUN 1C DEB", "group": "fengyun-1c-debris", "lat": 68.52686656586373, "lon": 52.815202366654304, "alt_km": 735.3541270191054, "timestamp": "2025-12-22T11:33:20.714793+00:00", "meta": {"OBJECT_NAME": "FENGYUN 1C DEB", "OBJECT_ID": "1999-025ZZ", "EPOCH": "2025-12-22T04:42:54.828288", "MEAN_MOTION": 14.45974529, "ECCENTRICITY": 0.0012279, "INCLINATION": 98.8652, "RA_OF_ASC_NODE": 75.8936, "ARG_OF_PERICENTER": 183.0522, "MEAN_ANOMALY": 204.6464, "EPHEMERIS_TYPE": 0, "CLASSIFICATION_TYPE": "U", "NORAD_CAT_ID": 30312, "ELEMENT_SET_NO": 999, "REV_AT_EPOCH": 98057, "BSTAR": 0.0025932, "MEAN_MOTION_DOT": 9.205e-05, "MEAN_MOTION_DDOT": 0}, "tle": {"line1": "1 30312U 99025ZZ  25356.19646792  .00009205  00000+0  25932-2 0  9997", "line2": "2 30312  98.8652  75.8936 0012279 183.0522 204.6464 14.45974529980574"}}, "geometry": {"type": "Point", "coordinates": [52.815202366654304, 68.52686656586373]}}, {"type": "Feature", "properties": {"norad_id": 30313, "name": "FENGYUN 1C DEB", "group": "fengyun-1c-debris", "lat": 20.05651719037697, "lon": -93.96207391180413, "alt_km": 841.072971086167, "timestamp": "2025-12-22T11:33:20.714803+00:00", "meta": {"OBJECT_NAME": "FENGYUN 1C DEB", "OBJECT_ID": "1999-025AAA", "EPOCH": "2025-12-22T04:19:48.777888", "MEAN_MOTION": 14.25522407, "ECCENTRICITY": 0.0056804, "INCLINATION": 98.8751, "RA_OF_ASC_NODE": 82.4631, "ARG_OF_PERICENTER": 307.9357, "MEAN_ANOMALY": 107.8431, "EPHEMERIS_TYPE": 0, "CLASSIFICATION_TYPE": "U", "NORAD_CAT_ID": 30313, "ELEMENT_SET_NO": 999, "REV_AT_EPOCH": 97224, "BSTAR": 0.0017561, "MEAN_MOTION_DOT": 4.178e-05, "MEAN_MOTION_DDOT": 0}, "tle": {"line1": "1 30313U 99025AAA 25356.18042567  .00004178  00000+0  17561-2 0  9990", "line2": "2 30313  98.8751  82.4631 0056804 307.9357 107.8431 14.25522407972241"}}, "geometry": {"type": "Point", "coordinates": [-93.96207391180413, 20.05651719037697]}}, {"type": "Feature", "properties": {"norad_id": 30314, "name": "FENGYUN 1C DEB", "group": "fengyun-1c-debris", "lat": 52.78974770190495, "lon": 175.36817447750752, "alt_km": 871.1596894935356, "timestamp": "2025-12-22T11:33:20.714814+00:00", "meta": {"OBJECT_NAME": "FENGYUN 1C DEB", "OBJECT_ID": "1999-025AAB", "EPOCH": "2025-12-19T07:54:02.351232", "MEAN_MOTION": 14.0121396, "ECCENTRICITY": 0.0143407, "INCLINATION": 98.3834, "RA_OF_ASC_NODE": 183.6699, "ARG_OF_PERICENTER": 339.1457, "MEAN_ANOMALY": 20.3896, "EPHEMERIS_TYPE": 0, "CLASSIFICATION_TYPE": "U", "NORAD_CAT_ID": 30314, "ELEMENT_SET_NO": 999, "REV_AT_EPOCH": 96201, "BSTAR": 0.00090289, "MEAN_MOTION_DOT": 1.445e-05, "MEAN_MOTION_DDOT": 0}, "tle": {"line1": "1 30314U 99025AAB 25353.32919388  .00001445  00000+0  90289-3 0  9991", "line2": "2 30314  98.3834 183.6699 0143407 339.1457  20.3896 14.01213960962014"}}, "geometry": {"type": "Point", "coordinates": [175.36817447750752, 52.78974770190495]}}, {"type": "Feature", "properties": {"norad_id": 30315, "name": "FENGYUN 1C DEB", "group": "fengyun-1c-debris", "lat": 56.003928334753354, "lon": -161.32603350422863, "alt_km": 844.9506746008119, "timestamp": "2025-12-22T11:33:20.714823+00:00", "meta": {"OBJECT_NAME": "FENGYUN 1C DEB", "OBJECT_ID": "1999-025AAC", "EPOCH": "2025-12-22T01:08:33.959328", "MEAN_MOTION": 14.19077524, "ECCENTRICITY": 0.0034743, "INCLINATION": 98.6014, "RA_OF_ASC_NODE": 5.2836, "ARG_OF_PERICENTER": 333.3088, "MEAN_ANOMALY": 94.1805, "EPHEMERIS_TYPE": 0, "CLASSIFICATION_TYPE": "U", "NORAD_CAT_ID": 30315, "ELEMENT_SET_NO": 999, "REV_AT_EPOCH": 97839, "BSTAR": 0.00030538, "MEAN_MOTION_DOT": 5.99e-06, "MEAN_MOTION_DDOT": 0}, "tle": {"line1": "1 30315U 99025AAC 25356.04761527  .00000599  00000+0  30538-3 0  9994", "line2": "2 30315  98.6014   5.2836 0034743 333.3088  94.1805 14.19077524978398"}}, "geometry": {"type": "Point", "coordinates": [-161.32603350422863, 56.003928334753354]}}, {"type": "Feature", "properties": {"norad_id": 30316, "name": "FENGYUN 1C DEB", "group": "fengyun-1c-debris", "lat": 34.0979740510716, "lon": 93.33597732482934, "alt_km": 680.5912746817676, "timestamp": "2025-12-22T11:33:20.714833+00:00", "meta": {"OBJECT_NAME": "FENGYUN 1C DEB", "OBJECT_ID": "1999-025AAD", "EPOCH": "2025-12-21T23:51:19.070208", "MEAN_MOTION": 14.56214482, "ECCENTRICITY": 0.0035221, "INCLINATION": 98.6481, "RA_OF_ASC_NODE": 98.7448, "ARG_OF_PERICENTER": 10.9707, "MEAN_ANOMALY": 349.225, "EPHEMERIS_TYPE": 0, "CLASSIFICATION_TYPE": "U", "NORAD_CAT_ID": 30316, "ELEMENT_SET_NO": 999, "REV_AT_EPOCH": 98471, "BSTAR": 0.0020214, "MEAN_MOTION_DOT": 8.97e-05, "MEAN_MOTION_DDOT": 0}, "tle": {"line1": "1 30316U 99025AAD 25355.99397072  .00008970  00000+0  20214-2 0  9998", "line2": "2 30316  98.6481  98.7448 0035221  10.9707 349.2250 14.56214482984719"}}, "geometry": {"type": "Point", "coordinates": [93.33597732482934, 34.0979740510716]}}, {"type": "Feature", "properties": {"norad_id": 30317, "name": "FENGYUN 1C DEB", "group": "fengyun-1c-debris", "lat": 49.542063032963085, "lon": -13.771548336497652, "alt_km": 881.9232293805826, "timestamp": "2025-12-22T11:33:20.714843+00:00", "meta": {"OBJECT_NAME": "FENGYUN 1C DEB", "OBJECT_ID": "1999-025AAE", "EPOCH": "2025-12-21T23:22:08.847264", "MEAN_MOTION": 14.06952891, "ECCENTRICITY": 0.0024144, "INCLINATION": 98.7865, "RA_OF_ASC_NODE": 356.184, "ARG_OF_PERICENTER": 249.656, "MEAN_ANOMALY": 110.2015, "EPHEMERIS_TYPE": 0, "CLASSIFICATION_TYPE": "U", "NORAD_CAT_ID": 30317, "ELEMENT_SET_NO": 999, "REV_AT_EPOCH": 97143, "BSTAR": 4.2179e-05, "MEAN_MOTION_DOT": 2.8e-07, "MEAN_MOTION_DDOT": 0}, "tle": {"line1": "1 30317U 99025AAE 25355.97371351  .00000028  00000+0  42179-4 0  9991", "line2": "2 30317  98.7865 356.1840 0024144 249.6560 110.2015 14.06952891971432"}}, "geometry": {"type": "Point", "coordinates": [-13.771548336497652, 49.542063032963085]}}]}